{
    "links": {
        "self": "http://www.neowsapp.com/rest/v1/neo/3709714?api_key=iIulBulltgU6a56xZRHN4H3l9WmuAYTsLGpBGhQ2"
    },
    "id": "3709714",
    "neo_reference_id": "3709714",
    "name": "(2015 BQ515)",
    "designation": "2015 BQ515",
    "nasa_jpl_url": "http://ssd.jpl.nasa.gov/sbdb.cgi?sstr=3709714",
    "absolute_magnitude_h": 23.7,
    "estimated_diameter": {
        "kilometers": {
            "estimated_diameter_min": 0.0483676488,
            "estimated_diameter_max": 0.1081533507
        },
        "meters": {
            "estimated_diameter_min": 48.3676488219,
            "estimated_diameter_max": 108.1533506775
        },
        "miles": {
            "estimated_diameter_min": 0.0300542543,
            "estimated_diameter_max": 0.0672033557
        },
        "feet": {
            "estimated_diameter_min": 158.6865169607,
            "estimated_diameter_max": 354.8338390368
        }
    },
    "is_potentially_hazardous_asteroid": false,
    "close_approach_data": [
        {
            "close_approach_date": "2015-01-11",
            "close_approach_date_full": "2015-Jan-11 21:15",
            "epoch_date_close_approach": 1421010900000,
            "relative_velocity": {
                "kilometers_per_second": "11.5147053893",
                "kilometers_per_hour": "41452.9394013119",
                "miles_per_hour": "25757.2444852207"
            },
            "miss_distance": {
                "astronomical": "0.1560736936",
                "lunar": "60.7126668104",
                "kilometers": "23348292.125592632",
                "miles": "14507955.9839850416"
            },
            "orbiting_body": "Earth"
        }
    ],
    "orbital_data": {
        "orbit_id": "3",
        "orbit_determination_date": "2017-04-06 08:35:54",
        "first_observation_date": "2015-01-27",
        "last_observation_date": "2015-02-09",
        "data_arc_in_days": 13,
        "observations_used": 13,
        "orbit_uncertainty": "9",
        "minimum_orbit_intersection": ".142612",
        "jupiter_tisserand_invariant": "4.616",
        "epoch_osculation": "2457050.5",
        "eccentricity": ".2555745794866965",
        "semi_major_axis": "1.415568603229423",
        "inclination": "21.24386359941396",
        "ascending_node_longitude": "118.9452037846173",
        "orbital_period": "615.1695200713937",
        "perihelion_distance": "1.053785252724493",
        "perihelion_argument": "308.5172051860386",
        "aphelion_distance": "1.777351953734354",
        "perihelion_time": "2456986.854512963453",
        "mean_anomaly": "37.24562837654541",
        "mean_motion": ".5852045464772379",
        "equinox": "J2000",
        "orbit_class": {
            "orbit_class_type": "AMO",
            "orbit_class_description": "Near-Earth asteroid orbits similar to that of 1221 Amor",
            "orbit_class_range": "1.017 AU < q (perihelion) < 1.3 AU"
        }
    },
    "is_sentry_object": false
}